num,name,address,lat,lon,code_wil
1,SAADI ABDELLAH,CITE 180 200 BAT 8 APPART 01 Bab Ezzouar,36.7220182,3.1856806,16
2,CHAMBRE NATIONALE DES NOTAIRES,2 RUE EL BAKRI Ben Aknoun Rp,36.7646339,3.0156492,16
3,BOUCHALI FOUZIA,12 RUE MOULOUD ZADI ET LE 110 ANGLE DIDOUCHE MOURAD LE SACRE COEUR Alger  Centre,36.7637381,3.048095,16
4,CHIALI HIND,157 CITE AISSAT IDIR Cheraga Rp,36.7578281,2.9572724,16
5,OUBAD NADJET,62 R.N.  Bainem,36.8127227,2.9625921,16
7,CHAMBRE REGIONALE DES NOTAIRES DE L'OUEST,05 BOULEVARD KHEDIM MUSTAPHA EL IMAM HOUARI Oran El M'naouer Ctr,35.6987388,-0.6349319,31
8,CHAMBRE REGIONALE DES NOTAIRES DE L'OUEST,ZONE DES SIEGES 16 USTO Oran,35.6989253,-0.5996961,31
9,ABDELBAKI MADANI,AVENUE DU 5 JUILLET SERSOUF Tamanrasset,22.7902972,5.5193268,11
10,BENZAOUI HAMMOU,4 ET 5 RUE CHEIKH BACHIR EL IBRAHIMI BP 303 El Harrach,36.7189505,3.1417051,16
11,DERARDJA ABDELKRIM,10 RUE ABANE RAMDANE Alger  Centre,36.778884,3.059357,16
12,SOCIETE CIVILE PROFESSIONNELLE NOTARIALE NOURI HAMMOUM & ALLAOUA SAID,70 RUE DE TRIPOLI Hussein Dey Rp,36.7445821,3.0944025,16
13,BOUTER KHELIFA,8 RUE AHMED MOKRANI El Harrach,36.7204806,3.1405843,16
14,ZEMIR MOSTEFA,12 AVENUE MOHAMED BOUKELLA Bab El Oued,36.7943835,3.0523634,16
15,MERAD KADDOUR,4 RUE EL BEKRI El Biar,36.7694847,3.0309897,16
16,BACHA SALIM,18 AVENUE BOUBELLA MOHAMED Bab El Oued,36.7943835,3.0523634,16
17,BOUDJELTIA ABDELKADER,42 RUE DES MARTYRS Chlef,36.1579664,1.3372823,2
18,BOUTEGHRAR ALLAOUA,33 RUE DES FRERES BOUAABSSA Batna,35.5634192,6.1889996,5
19,BENHOUDA BRAHIM,5 BD BENFLIS Batna,35.5321898,6.1686094,5
20,LAHDIRI AMAR,BOULEVARD DE LA REVOLUTION Bejaia,36.7493649,5.0592183,6
21,AZOUI SALAH,RUE ABDAOUI ABDERAHMANE Biskra,34.8553366,5.733139,7
22,TOUTI FERHAT,2 AVE BELLILI ABOUBAKER SEDDIK Biskra,34.8449437,5.7248567,7
23,HAMMOUDA MOHAMED,RUE SBIHI MEHDI Larbaa,36.5658397,3.1563962,9
24,KECHOUT ABDELLATIF,36 RUE MOHAMED BOUDIAF Blida,36.4707094,2.8292306,9
25,BECHE AHMED,CITE HADJ MERZOUK BT A 1 Bouira,36.3627656,3.8980721,10
26,AMROUNE MAAMAR,RUE EMIR ABDELKADER Sour El Ghozlane,36.1508804,3.7074189,10
27,AZZOUNI ABDELLATIF,13 RUE COMMANDANT MOKHTAR BOUZIDI Tlemcen,34.8831751,-1.31197,13
28,MEZIANI YOUCEF,CITE DES 32 LOGTS BT B 1 Azazga,36.7453947,4.3714004,15
29,BELOUNIS NASREDDINE,12 RTE DE BOGHNI Draa El Mizan,36.5329303,3.9611136,15
30,RABAHI AMAR,CITE 44 LOGTS BT A/2 Zeralda,36.711348,2.8380608,16
31,BOUHANGUEL ACHOUAK,RUE 20 AOUT 1955 Jijel,36.8195869,5.7688871,18
32,BOUROUIS ZIDANE,36 AVENUE BACHIR BOUKADOUM Skikda,36.8733403,6.9096742,21
34,ARABA ABDELGHANI,CITE DES CHAMPS MANOEUVRES Guelma,36.4587605,7.4301211,24
35,HECINI FATMA ZOHRA,CITE DU 20 AOUT Sidi Aissa,35.885157,3.774373,28
36,MAALOUFI ABDELHAMID,19 RUE BOUDJELLAL AHMED Oran El M'naouer Ctr,35.7058968,-0.6336155,31
37,BEKHTAOUI SAID,BOULEVARD TRIPOLIE ANGLE DIF ALLAH DJILALI Oran,35.7051525,-0.6365844,31
38,MEROUANE ABDELLAH,3 AVENUE DES JARDIN BT HBM BEAU MARCHE Arzew,35.8577443,-0.3096606,31
39,AYADHAT BOUDAOUD,45 RUE DU 24 AVRIL Bordj Bou Arreridj,36.0739925,4.7630271,34
40,BELGHERBI FARIDA,CITE 300 LOGTS VILLA 8 Boumerdes,36.7551365,3.4562362,35
41,ZAHRI ABDERREZAK,16 AVENUE ABBES LAGHROUR Khenchela,35.4269404,7.1460155,40
42,ALLALI AHMED,2 AVENUE DE LA PALESTINE Khenchela,35.4269404,7.1460155,40
43,RAHALI BAROUDI,12 RUE EMIR ABDELKADER El Malah,35.3870327,-1.0976722,46
44,SIROUKANE OMAR,RUE LARBI BEN M'HIDI Bounoura,32.4889043,3.6705385,47
45,ROGUI SLIMANE,BOULEVARD EMIR ABDELKADER Relizane,35.7450263,0.5578837,48
46,BAHRI MOHAMED,9 AVENUE DOCTEUR BOUKHALOUA Relizane,35.745465,0.5588659,48
47,KLOUCHE AMINA,CITE RABIA TAHAR BATIMENT 9 C 263 Bab Ezzouar,36.7227952,3.1798486,16
48,BOUKHELKHAL ALI,95 RTE DE CHERAGA Dely Ibrahim,36.7543235,2.9730065,16
49,SADIKI MOKHTAR,RUE CHOUAKI TAYEB 8 LOGTS Mecheria,33.5428376,-0.2751123,45
50,DJEBAR KOTBI,RUE SALAA EL HBIB El Bayadh,33.6854149,1.0303543,32
51,IMANDASSEN MOHAMED AMEZIANE,28 BOULEVARD ZIROUD YOUCEF  Khelifa Boukhalfa,36.7667039,3.0539096,16
52,ABED EL HAMID,RUE NAFAA KOUIFDER CITE RASS EL AIN El Bayadh,33.6854149,1.0303543,32
53,ZITOUNI MERIEM,31 AVENUE COLONEL AMIROUCHE Alger  Centre,36.7704344,3.0578615,16
54,MIROUH RABAH,CITE DAUPHIN VILLA DAR ESSALAM 11 Draria,36.720057,2.9951112,16
55,BENHADJ AHMED,CITE DES 40 LOGTS LOCAL 25 Adrar,28.0174403,-0.2642497,1
56,BARIK BOUDJEMAA,CITE 103 LOGTS BP 575 Adrar,28.0174403,-0.2642497,1
57,MIMOUNI NOUREDDINE,2 RUE MOHAMED IDRIS BEY Alger  Centre,36.7610218,3.0564266,16
58,AROUCHE HOCINE,CITE BEN HAMMADI ALLAL Timimoun,29.2616911,0.2415964,1
59,ALI NEMRI,37 RUE LARBI BEN MHIDI Alger  Centre,36.7793569,3.0580611,16
60,HAMMADI OUADHOUR,40 BD MOHAMED 5 Alger  Centre,36.76787,3.0523284,16
61,HENTABLI AHMED,7 RUE ABDELKEDER SELLAL El Mouradia,36.7409527,3.0543286,16
62,EL HADJ MESSAOUD MOHAMED,7 RUE DES FRERES ZEGHNOUNE BELLE VUE El Harrach,36.7279477,3.1388886,16
63,BENAMIROUCHE ABDELKADER,CITE 632 LOGTS BT 55 6 Mohammadia,36.7303904,3.1472242,16
64,BEDJAOUI KHENFER AZZEDINE,1 CITE 300 LOGTS BT 20 EX 15 Bab Ezzouar,36.7514093,3.0585793,16
65,BOUSRI MOKHTAR,CITE DES 310 LOGTS BT D 39 1 LES BANANIERS Mohammadia,36.730841,3.1659437,16
66,BENAGGOUN CHERIF,AVENUE 11 DECEMBRE 1960 24 Bordj El Kiffan,36.7740428,3.2625559,16
67,ZAANANI NADIA,CITE DES 618 LOGTS BT 9 El Harrach,36.7209669,3.1376625,16
68,MANSOURI RABAH,CITE 1ER NOVEMBRE 32 LOGTS BT A/1 Dar El Beida,36.7139279,3.21325,16
69,ARICHI BACHIR,CITE 5 JUILLET BT D 01 Bab Ezzouar,36.7215061,3.1828809,16
70,AYAD AHMED,CITE HLM DES 70 LOGTS CAGE B 11 Baraki,36.6685704,3.1025581,16
71,EL ARBI BOUAMRANE,10 BD TALEB ABDERRAHMANE Bab El Oued,36.79024,3.0567318,16
72,BOUKHARI RABAH,17 AVENUE COLONEL LOTFI Bab El Oued,36.7910119,3.0549077,16
73,BENABID MOHAMMED TAHAR,03 AVENUE DU 1 ER NOVEMBRE 1954 Alger  Centre,36.787873,3.0629224,16
76,BADECHE ALI,02 RUE AHMED TOUZAM Bab El Oued,36.7904262,3.0520959,16
77,MOHAMED YAHIAOUI AMMAR,APART CITE ANCIENS MOULINS Bab El Oued,36.7943835,3.0523634,16
78,AFOUFOU ABDESSALEM,7 RUE OMAR AMIMOUR Alger  Centre,36.7712246,3.0612244,16
79,AMROUCHE ALI,02 RUE DERBOUZ LOUNI AREZKI Bab El Oued,36.7884999,3.0585282,16
80,SI HACENE NADJIA,12 RUE DIDOUCHE MOURAD Alger  Centre,36.7696875,3.0552229,16
81,CHAIB MOHAMED,05 RUE DES FRERES MERZOUK Bab El Oued,36.7943835,3.0523634,16
83,BENMOUBAREK AHMED,04 RUE SAID HAMDINE Bir Mourad Rais,36.732839,3.0381036,16
84,MANSOUR ABDELLAH,NOUVELLE RTE 149 Bouzareah,36.788908,3.017453,16
85,ZITOUNI BOUDJEMAA,CITE 604 LOGTS BATIMENT 47 01 Bir Mourad Rais,36.7323545,3.0497609,16
86,LADJEL NAIMA,CITE ZIANNIA BT 5 CHEVALLY Bouzareah,36.7696236,3.008815,16
87,MANSOURI OUDINA NADIA,CITE DES SOURCES BATIMENT 10 B 3 Bir Mourad Rais,36.7331108,3.0554289,16
88,IMAD MOHAMED,ROUTE SIDI YAHIA Hydra,36.7387861,3.04359,16
89,CHIHANI ABDELKADER,01 AVENUE AMRANE AHMED El Biar,36.7688987,3.0260599,16
90,NASSAR SALAH-BEY SALIHA,11 CITE AHCEN MEHYOUZ EX ASFODEL BT B CAGE 2 Ben Aknoun Rp,36.7597697,3.0138343,16
91,DHERBANI LAKHDAR,CITE CHAHID MAHDID SALAH BT F Birkhadem,36.7160675,3.0496695,16
92,BADI ABDELHAMID,101 NOUVELLE ROUTE Bouzareah,36.7904362,3.0173207,16
93,BEN AKILA ABDELKADER,10 CITE SAID HAMDINE BT 8 Bir Mourad Rais,36.7353482,3.0383576,16
94,AIT BOUDAOUD ISMAIL,CITE LES ANNASSERS 2 BT B29/2 Kouba,36.7341842,3.066072,16
95,MELAKHSSOU TAHAR,81 RUE KRIM BELKACEM Alger  Centre,36.7695198,3.0504901,16
96,SAIDI MOHAMMED CHERIF,CITE BACHJERAH BT 39 ISSUE 3 01  Khelifa Boukhalfa,36.766362,3.053652,16
97,AMIROUCHE AZZEDDINE,CITE DOUZI 3 428 Bab Ezzouar,36.736469,3.18412,16
98,REGANI NADJEM,CITE BACHJERAH BT 62/2 Bachedjerah,36.7193746,3.1116446,16
100,DENANE KHEDIDJA,AVENUE BOUDJEMAA MOGHNI BT ESSALEM CAGE C 28 Hussein Dey Rp,36.7388579,3.1005586,16
102,SAHRAOUI MOHAMED TAHAR,9 RUE HADJ AHMED OUADI Cherchell,36.5955738,2.2525015,42
103,GUECHOUT ABDELLATIF,36 AVENUE ALI BELHACEN Cherchell,36.5955738,2.2525015,42
104,MEDJRAB EL HADI,CITE 110 LOGTS BT E5 30 Blida,36.4933447,2.8612952,9
105,AIT KACI BOUALEM,01 RUE MESBAH HAMIDOU Kheraicia,36.7027252,3.0227071,16
106,LARBI ESSEGHIR,63 AVE AMARA YOUCEF Blida,36.4752079,2.8204585,9
107,CHABANE MOHAMMED,22 RUE BEN ALI Oued El Alleug,36.558265,2.793251,9
108,ARAB CHABANE,CITE SIDI YAKHLEF BT A Blida,36.4735715,2.8323153,9
109,BENABDELLAH MOULOUD,RUE BELHADID Kheraicia,36.6679107,2.9982768,16
111,OUADI MENNI HOURIA,232 LOT. BOULANGERIE INDUSTRIELLE Cheraga Rp,36.7668544,2.9602011,16
112,BOUDJENANA ABDELKADER,CITE ALI KERKOUBA BP 130 Kouba,36.7260163,3.0826673,16
113,BOUAMRA KHORIS,RUE MUSTAPHA BEN BOUALI Blida,36.4711582,2.8305238,9
114,BERTIL MOHAMMED,RUE LES FRERES TAIL Hadjout,36.5088655,2.4128469,42
115,MEBARKI SALAH,CITE 82 LOGTS RTE DU STADE 2 Hadjout,36.5121841,2.4142994,42
116,CHIKER MUSTAPHA,CITE DES 72 LOGTS El Affroun,36.4701592,2.625741,9
117,DJIDJEK SALAH,78 RUE DES FRERES ABDESLAMI Kouba,36.728999,3.0805174,16
118,BEN M'HAMED ABDELLAH,53 RUE DE LA REPUBLIQUE Chlef,36.1663176,1.3368035,2
119,BEZIOU MOHAMED,CENTRE COMMERCIAL BOUKADIR Boukadir,36.060248,1.1305809,2
120,BENOUSSAR AHMED,2 RUE DE LA RESISTANCE Chlef,36.1667634,1.3361096,2
121,HAMADOUCHE ROKIA,4 RUE SI ALLEL Chlef,36.1579664,1.3372823,2
122,SAMET BOUHAYEK DJILLALI,26 RUE EL MOUSSAAD AZZOUN Chlef,36.1579664,1.3372823,2
123,KELLOUCHE ABDELKADER,RUE DES MARTYRS Chlef,36.1664031,1.3361486,2
124,ZIDOUK DJILLALI,CITE DES FRERES MENAD NUMERO 121 Ain Defla,36.2509429,1.9393815,44
125,BELLAHCENE ABDELKADER,9 RUE AHCEN KHMISSA  Sidi M'hamed,36.7468799,3.0551056,16
126,ACHOUR ALI,RUE ABESS MOHAMED Khemis Miliana,36.2609828,2.2343578,44
127,KRIM LEILA,AVE 1ER JUILLET BT 70 Birkhadem,36.721798,3.0287448,16
129,EL MAIZI DJILLALI,RUE DJADI ABDELKADER Khemis Miliana,36.2609828,2.2343578,44
130,MOULELOUED ABDELKADER,RUE MOHAMED KHEMISTI El Attaf,36.2612536,1.9627311,44
131,KALI ABDELHAFID,CITE FERACHE AHMED BT A N°1 Medea,36.2637078,2.7587857,26
133,BENTOUMI MUSTAPHA,ROUTE MOHAMED KHEMISTI Ksar El Boukhari,35.8763773,2.7488447,26
134,SALHI MUSTAPHA,CITE BEN BOULAID BT R 3 Blida,36.4846841,2.8346336,9
135,ABDOUN MESSAOUD,RUE DE LA PALESTINE Tablat,36.4131818,3.3110706,26
136,BOUKHELT ABDELKADER,CITE OUAOUA EL MADANI M'sila,35.708979,4.5415378,28
137,DJIDJAA HOCINE,CITE OUAOUA EL MADANI M'sila,35.708979,4.5415378,28
138,MOUSSAI MOUSSA,CITE BENYOUNES EL HADJ BP 242 M'sila,35.7186646,4.5233423,28
139,ZITOUNI AMAR,NOUVELLE ZONE URBAINE M'sila,35.7186646,4.5233423,28
140,DJEMIAP MOHAMED SALEH,CITE ADMINISTRATION BP 1315 M'sila,35.7186646,4.5233423,28
141,MADANI MOHAMMED,CITE DE L'ANCIEN MARCHE Sidi Aissa,35.885157,3.774373,28
142,ETTAHAR SALAH,RUE LARBI TEBESSI Bou Saada,35.2113258,4.1817194,28
143,LEMOUENNES SAAD,CITE PLATEAU Bou Saada,35.2163516,4.181463,28
144,MEKIRECHE IBRAHIM,1/433 RUE ANCIENNE D'ALGER  CITE MOUAMINE M'sila,35.7186646,4.5233423,28
145,LESLET HAMDI,CITE DU 24 FEVRIER Ain El Melh,34.8467202,4.1618039,28
146,TOUMI AKLI,38 AVENUE KHOUDJA KHALED Tizi Ouzou,36.7353068,3.9849727,15
147,HAMLIL AMAR,CITE EUCALYPTUS BT A 62 Tizi Ouzou,36.7118815,4.0488682,15
148,ZEMIRLI OURIDA,CITE 1 BT 2/8 Kouba Garidi,36.7273022,3.0673808,16
149,ZENBOUDJI AHMED MOUSADDEK,CITE HAMMOUTENE 24 Tizi Ouzou,36.7104686,4.0650031,15
150,IGHIL GUITOUN OMAR,CITE 708 LOGTS BT A 4 Boumerdes,36.7510697,3.4788905,35
151,BENAKILA ABBES,CITE DES 392 LOGTS BT A 19 Boumerdes,36.7653826,3.4644695,35
152,FEKROUNE BOUBEKEUR,CITE 1406 LOGTS BT 24B 2 Boumerdes,36.7510697,3.4788905,35
153,ZERRAG YOUCEF,118 CITE 20 AOUT 1955 BT 4 Rouiba Rp,36.7358928,3.2779879,16
154,SEDRATI BOUZID,LOTISSEMENT LA CADET VILLA 14 Rouiba Rp,36.7358928,3.2779879,16
155,SAHEB ABDERRAHMANE,CITE 150 LOGTS BT 9 31 Rouiba Rp,36.7438381,3.2850861,16
156,BELACEL BOUBEKEUR,RUE AMIROUCHE AIT BEN AMARA Tizi Ouzou,36.7389973,4.0108251,15
157,BOUDAR YOUCEF,CITE TAZGHARAT ACHOUR BT A 1 Bouira,36.3627656,3.8980721,10
158,BOUSAAD GUEMMAZ,BT ZEMMOUR MOHAMMED IRAB 69 Bouira,36.3691846,3.9006194,10
159,HARKAT AMAR,CITE DES 280 LOGTS BT 9 1 Bouira,36.372297,3.892094,10
160,BOUCHOUANE MESSAOUD,5 RUE SI LAKHDER Lakhdaria,36.5655989,3.593173,10
161,HASANI ABDELKADER,AVE DE L'ALN RTE D'EL MADJBARA Djelfa,34.6703956,3.2503761,17
162,BOUKHAROUBA SAMIRA,04 RUE KHELIFA BOUKHALFA Alger  Centre,36.7445311,3.0938679,16
163,BOUHERAOUA HOCINE,CITE DES 200 VILLA COOP. KAHINA N°1 Tizi Ouzou,36.7335539,3.9618589,15
164,MERABET AHMED,64 CITE EL MOUDJAHIDINE CHEVALLY Ben Aknoun Rp,36.7696236,3.008815,16
165,KEBBAS ZAHIA,CITE DES FONCTIONNAIRES BT 7 9 Tizi Ouzou,36.7122399,4.0556532,15
166,MOHAMMEDI NOUREDDINE,16 RUE DE LA PAIX Tlemcen,34.8831751,-1.31197,13
167,ABBES AHMED,1 RUE ABDELKRIM CHEBOUT Hussein Dey Rp,36.7413901,3.0993429,16
168,BELHADJ AHMED,6 RUE DAIB AISSA Bordj El Kiffan,36.7460195,3.1913182,16
169,DJADIDI MAARADJ,11 RUE DES FRERES HAMZA Dely Ibrahim,36.7520272,2.9841482,16
170,REZAK LABZA SAID,CITE AISSAT IDIR BT 07 El Harrach,36.7209669,3.1376625,16
171,ABDELLAH SLIMANE,CITE PATRIMOINE C9 El Magharia,36.7304225,3.1100238,16
173,ATICHE HANI ABDELHAMID,116 AVENUE DIDOUCHE MOURAD  Mourad Didouche,36.7635509,3.046542,16
174,AMRANI BAHIA,01 RUE COLONEL AMIROUCHE PROMOTION IMMOBILIERE SAADA Bordj El Kiffan,36.7941454,3.2903027,16
175,MOURAD KADOUR,4 RUE EL BEKRI Ben Aknoun Rp,36.7597697,3.0138343,16
176,MESSAOUDI SEDDIK,21 RUE ALI MEDOUCHE Hussein Dey Rp,36.734132,3.1006781,16
177,MOUISSI ABDELKADER,8 RUE BADREDDINE RIDJIMI Kouba,36.7322951,3.0870573,16
178,NAIT CHABANE AMER,67 RUE BOUDJEMA MEGHNI Hussein Dey Rp,36.7406167,3.0961917,16
179,WATHEH AICHA,42 RUE BOUDJEMAA MOGHNI Hussein Dey Rp,36.7401224,3.0989528,16
181,AHNOU KAHINA,CITE DES 250 LOGTS BT A3 02 Cheraga Rp,36.7697785,2.9557933,16
182,BELIR MALIKA,3 AVENUE MIHOUBI MOHAMED Cheraga Rp,36.7659645,2.961667,16
183,BOUTINE HOUCINE,RUE DES FRERES ALILI AHMED 26 Blida,36.4735715,2.8323153,9
184,BOUKHATEM ABDELKADER,CITE DES 42 LOGTS Ain Benian,36.8027623,2.9184078,16
185,BOUKEFFA MESSAOUD,RUE BOUCHOUNE MOHAMED Bou Ismail,36.6392852,2.6962722,42
186,TOUMI BEN ALI NAIMA,RUE AYOUNA MOHAMED Blida,36.4860147,2.8263335,9
187,TIGHERSI AHMED,CITE NOUVELLE MEFTAH BLOC 11 RDC Blida,36.5210052,3.0730945,9
188,KHIARI ABDELMALEK,RUE DES FRERES DJARBOUA Blida,36.4735715,2.8323153,9
190,SOUALMI ABDERAHMAN,19 CTRE ZABANA RUE D Blida,36.4799716,2.8063907,9
191,ATMANI MUSTAPHA,27 RUE BELKACEM  LOUZERI Blida,36.4768074,2.8305802,9
192,ARACHE NOUREDDINE,17 AVE SI SMAIL OUA SOUIDANI BOUDJEMAA Boufarik,36.5709339,2.9112103,9
193,MEHAFDI ABDELAZIZ,CITE DES 128 LOGTS BT B4/4 Meftah,36.6223869,3.2261299,9
194,MIMOUN MOHAMED AMINE,CITE 20 LOGTS BT A 2 AISSAT IDIR Cheraga Rp,36.7567621,2.9545226,16
195,NASSRI MOHAND,2 CITE 150 LOGTS BT B22 Kolea,36.6381616,2.7669757,42
196,DJAAFOUR RACHID,CITE 18 LOGTS BT 1 2 Boghni,36.5329303,3.9611136,15
197,ZAAMOUM HOUCINE,RUE DES FRERES MAAMRI Boghni,36.5329303,3.9611136,15
198,GHIAR BOUSAAD,RUE DU 1ER NOVEMBRE BP 501 Ain El Hammam,36.5698193,4.3120324,15
200,OUANOUGHI SAID,RUE CHAFAI AHMED IMMEUBLE YAHYAOUIALI Tigzirt,36.7117061,4.0552492,15
201,ASSABAA ZIDANE,8 RUE 19 MAI 1956 Constantine,36.3681164,6.61228,25
202,BEN DAOUDIA DRISS,1 CITE 136 LOGTS BT I Chlef,36.1579664,1.3372823,2
203,TERBAK ABDELKADER,24 RUE EL KODS Tenes,36.503668,1.2857665,2
204,HADJ SADOUK MALIKA,RUE EMIR ABDELKADER Chlef,36.1579664,1.3372823,2
205,BOUTAKA AHMED,2 CITE MENTOURI BOSKI BT T4 Constantine Sidi Mabrouk,36.3593882,6.6389031,25
206,MAKHFI MOKHTAR,RUE LES FRERES BEN SOULTAN BP 137 Tenes,36.5081163,1.3078225,2
209,MEZIANE AMER,COOP EL HOURIA CITE BEN ADJAL Boudouaou,36.7204759,3.396615,35
210,TOUAM HASSEN,RUE BEN CHALAL SMAIL Constantine,36.3570052,6.6390282,25
211,HAMEL MOHAMED,CITE FILALI BATIMENT D 22 Constantine,36.3570052,6.6390282,25
212,AMAMRA BOUZID,CITE BOUSSOUF BT C8/94 Constantine,36.330062,6.577004,25
214,GHIMOUZ MESSAOUD,32 RUE TATACHE BELKACEM Constantine,36.3585703,6.63277,25
215,SAADEDDINE AHMED,CITE DU 8 MAI 45 Beni Slimane,36.2272319,3.3071806,26
217,TOUNSI YAHIA,R.N. 5 RUE COLONEL SI LAKHDER Bouira,36.5655989,3.593173,10
218,BOURAS RABEH,DAIRA DE TELAGHMA Oued Seguen,36.1787191,6.3889194,43
219,ABDELAOUI ZOULIKHA,CITE DES 120 LOGTS BT 1 APPT 3 Bouira,36.5389502,3.675159,10
220,KARI NAIMA,CITE DES 126 LOGTS BOUTERMAS MESSAOUD BT 1 1 ER ETAGE Bouira,36.3691846,3.9006194,10
221,KAOUANE MESSAOUD,6 CITE ARADH SALAH Ain Bessem,36.3337514,3.687402,10
222,BOUHLESSA AMAR,26 CITE OUSCOURT ABEDKRIM Chelghoum Laid,36.1591597,6.1727342,43
223,LABIOD MOHAMED,33 CITE OUSKOURT ABEDELKRIM Chelghoum Laid,36.1646701,6.1636356,43
225,BOUCHERMA DRISS,02 CITE DES 100 LOGTS BT 2 Zeghaia,36.4692715,6.1755208,43
226,DRIDI THEBET HABIBA,14 RUE SAIGHI Mila,36.4519049,6.2584338,43
227,BOUCHEMOUKHA AZEDDINE,IMMEUBLE SOUIDANI BOUDJEMAA Annaba Rp,36.900401,7.753418,23
228,TELILI MABROUK,14 AVENUE EMIR ABDELKADER Annaba Rp,36.8982602,7.7582576,23
229,DJEDI KHADIDJA,4 PLACE TAREK BEN ZIAD Annaba Rp,36.8999186,7.7594858,23
230,DERBALI AMAR,1 PLACE DE LA REVOLUTION Annaba Rp,36.9142081,7.7426673,23
231,DELMI HOURIA,23 COUR DE LA REVOLUTION Annaba Rp,36.8992246,7.7601246,23
232,TAOUTAOU MOULOUD,1 RUE ZIGHOUD YOUCEF Annaba,36.9142081,7.7426673,23
233,FILALI ABEDREZAK,1 RUE BOULHARTH SALEH Mila,36.4519049,6.2584338,43
234,CHERAOUNA NOUREDDINE,12 AVENUE ZABANE Constantine,36.3570052,6.6390282,25
235,KHALFA AMAR,CITE DES 500 LOGTS BT B 3 Ferdjioua,36.4051142,5.94196,43
236,SAHKI HOCINE,22 RUE MOHAMED KHEMISTI Annaba,36.8977204,7.758904,23
237,KERKOUB RACHID,6 PLACE TARIK IBN ZIAD Annaba Rp,36.9142081,7.7426673,23
238,SEBAB SIAB,CITE DE 18 LOGTS RTE NATIONALE 44 Ben M'hidi,36.7666372,7.9055824,36
239,ACHOURI RABEH,RUE HAMDI ABDELLAH MADJID El Tarf,36.7576678,8.3076343,36
240,BEN YAHIA RAMDHANE,62 AVENUE KADOUR BLIZIDIA Skikda,36.8662658,6.9062556,21
241,SEMOUMA YAZID,7 CITE DES ALLEES 20 AOUT 55 TOUR 27 Skikda,36.8646414,6.9137371,21
242,GUERIREM ABDELHAFIDH,4 RUE MOULOUD BOURAS Skikda,36.8789224,6.9060053,21
243,BOUMESSAD MOHAMED,32 RUE ABDELLAH BENGHERFE ALLAH Skikda,36.883152,6.9054596,21
244,BELHAMADI CHAABANE,909 CITE 1000 LOGTS BLOCS 88 El Khroub,36.2593314,6.7014537,25
245,BEN RADOUAN AISSA,CITE 24 LOGTS BT SONATIBA El Harrouch,36.6545563,6.8329628,21
246,BELGHAZI MOULOUD,AVENUE L'AKHELE TAHER EL KOL Skikda,36.8796509,6.9147479,21
247,OUADI ALI,CITE 1ER NOVEMBRE 28 LOGTS Azzaba,36.7411032,7.1116629,21
248,BELAATAR SAKINA,5 CITE EL MOUNAOUARAT BT 22 Guelma,36.4627444,7.4330833,24
249,KIRATI MOHAMED,BT SOUGUAN 2 Guelma,36.4627444,7.4330833,24
250,OURETH BOUGUERA,1 KAHDOUR TAHER BT 40 Guelma,36.4627444,7.4330833,24
251,KASMI RABII,CITE 130 LOGTS BT 13 Oued Zenati,36.3100347,7.1657362,24
252,REHAB ALI,AVENUE AMAR REGHIBA Oued Zenati,36.3100347,7.1657362,24
253,EL AIDI AHMED,CITE SALAH SOUFI BT 4/2 Sedrata,36.1345249,7.5297476,41
254,LAAROUM MUSTAPHA,8 AVENUE MOULOUD FERAOUN Souk Ahras,36.2855903,7.9613829,41
255,NOUARI HOCINE,72 AVENUE DIDOUCHE MOURAD Skikda,36.870155,6.9107549,21
256,AMIAR EDRISS,5 AVENUE ASSLA HOCINE Skikda,36.870155,6.9107549,21
257,BOUHARA SAID,CITE DES 50 LOGTS BT B ETAGE 13 Batna,35.5634192,6.1889996,5
258,BOUBGUIRA KAMEL,CITE 20 AOUT 1955 Batna,35.5561749,6.1720883,5
259,DELINDA KAMEL,15 RUE CHENAF AMAR QUARTIER VERDURE Batna,35.5321898,6.1686094,5
260,DALINDA SAID,19 PROM IMMOBILIERE BOUZERIA LES ALLEES 19 MARS BLOC 19 1ER ETAGE Batna,35.5634192,6.1889996,5
261,MAARAF ABEDSSELEM,3 RUE LARBI TEBESSI Batna,35.5519634,6.1781831,5
262,BELOUM ABEDELLAH,6 RUE KOUBABI ALI CITE EMIR ABDELKADER Barika,35.3844754,5.3713596,5
263,BELKADHI KHALIFA,6 CITE 200 LOGTS BLOC A Merouana,35.6320745,5.9131539,5
264,BOUCHOUL KAMEL,2 CITE EL DAKSI ABDELSALEM BLOC S BT K Constantine,36.3560687,6.6440456,25
265,BEN HAFIDH AMAR,AVENUE SAID RAHMANI AIN TOUTA Ain Touta,35.3808071,5.9020128,5
266,KORICHI AHMED,CITE DES RAMPARTS BT B/29 Setif,36.1897593,5.4107984,19
267,GHARBI M'BAREK,2 RUE ROUABEH MOUSSA CITE 1ER NOVEMBER BT A Setif,36.1897593,5.4107984,19
268,BELBAKHOUCHE KAMEL,1 CITE EL KHAHIRA BT 2 Setif,36.1897593,5.4107984,19
269,BEN CHICKH EL HADJ,CITE M'SSALTI ABESS ASSAOUAR EL KADIMA Setif,36.1897593,5.4107984,19
270,GUECHI KADOUR,4 RUE ABANE RAMDHANE Setif,36.1893122,5.405046,19
272,MADJOUR AISSA,27 CITE FRERES DIBABI BOUAKAL 3EME Batna,35.5355017,6.174758,5
273,AMIRA NADHIRA,5 RUE TOUHAMI SALEH CITE DES CHEMINAUX Setif,36.190855,5.4209417,19
274,GARGOURI FARID,CITE YAHIAOUI RUE ZABAT REMDANE 45 Setif,36.1987374,5.4240662,19
275,BELAID AHMED,47 CITE M'SALTI ABES ESOUAR KADIMA BT D5 Setif,36.1897593,5.4107984,19
276,ABIREZ KHATHIR,CITE DES 583 LOGTS Ain Oulmane,35.9197924,5.2972534,19
277,HADJIDJ AMER,51 RUE GUESSAB BACHIR El Eulma,36.1505099,5.6999461,19
278,BOUZID AMAR,126 RUE DU 1er NOVEMBRE 1954 El Eulma,36.151724,5.689403,19
279,AICHOUR LARBI,BOULEVARD BRAHIM ZEGHAR El Eulma,36.1505099,5.6999461,19
280,KADRI MANSOUR,ZAOUIET LES DEUX RUEX LA REVOLUTION IBRAHIM ZEGAR El Eulma,36.153098,5.6926809,19
281,MAHOUR BACHA SLIMANE,108 RUE MOHAMED KHMISTI El Eulma,36.1505099,5.6999461,19
282,REZOUGUE LAKHDAR,RUE CHINOUNE MOHAMED Bougaa,36.334064,5.0891805,19
283,ARABA AZOUZ,RUE CHENOUN MOHAMED Bougaa,36.334064,5.0891805,19
284,KHOUALEF MABROUK,2 CITE 100 LOGTS BT A Ain El Kebira,36.3695684,5.5075105,19
285,BEN DIB DJAMEL EDDINE,28 RUE MOHAMED ZEROUKI Bordj Bou Arreridj,36.0691561,4.7627336,34
286,BARKAT TAHER,CITE 410 LOGTS BAT 36 Batna,35.5634192,6.1889996,5
287,M'BARKI M'BAREK,13 RUE REMECHE AISSA PROMOTION INDIVEDEUL Bordj Bou Arreridj,36.0739925,4.7630271,34
289,KASSI HOCINE,RESIDENCE DE LA FORET SACREE AVENUE AMIROUCHE Bejaia,36.7541855,5.0813739,6
290,BOUFEDJAR LARBI,ROUTE DES AURESS BT C2 NACERIA Bejaia,36.7645536,5.0594622,6
291,RAHEL ABEDELKADER,RUE DES FRERES CHETIOUI Amoucha,36.3879438,5.4110623,19
292,BOUKHARI ZAKIA,96 LOGTS BT A4 28 TOUBALE Bejaia,36.7515258,5.0556837,6
293,BOUGUERA ALI IBN KHEMISTI,CITE DU 1ER NOVEMBRE 54 Kherrata,36.4936399,5.2770714,6
294,TAZAMOUCHT NEDJIMA,CITE DES 24 LOGTS ZONE INDUSTRIELLE COMMERCIALE BT A Souk Eltenine,36.6241834,5.3365405,6
295,KHABCHECHE EL HAFSSI,AVENUE DU 1ER NOVEMBRE 1954 Kherrata,36.7493649,5.0592183,6
296,SASSI HAMID,CITE 1ER NOVEMBRE 54 BT 01 ETAGE 21 Oum El Bouaghi,35.8688789,7.1108266,4
297,BELILI MOHAMED,CITE HIHI EL MEKI BP 163 Oum El Bouaghi,35.8742956,7.1225851,4
298,HAFID SEBTI,AVENUE ZIDOUNI AMARA Ain Beida,35.7958379,7.3902546,4
299,BOULKAYLA ALI,RUE ZAOUI ABEDELMADJID Ain Beida,35.796101,7.3903528,4
301,BOUDHRAA NADIR,23 RUE IDIR AISSAT Ain M'lila,36.0370574,6.5702778,4
302,SAADAOUI ABED EL HAMID,19 RUE EMIR ABDELKADER Biskra,34.8558289,5.7255262,7
303,SEKOUR MOHAMED,RUE 24 AVRIL Biskra,34.8449437,5.7248567,7
304,BEN MECHICHE ABED EL AZIZ,RUE DES FRERES MENANI Biskra,34.8536887,5.7324884,7
305,BOUSTTA MOHAMED,1 RUE MOHAMED NEDJAR Biskra,34.8533182,5.7334047,7
307,BEN HOURIA BRAHIM,RUE 1er NOVEMBRE 1954 Ouled Djellal,34.4285554,5.0682965,7
309,HILAL RACHID,CITE DES 30 LOGTS Ain Fakroun,35.9772098,6.8733714,4
310,YEKHLEF AMAR,9 AVENUE RICHI Ain M'lila,36.0343972,6.5737863,4
311,SIADI MOHAMED SADEK,118 CITE 700 LOGTS BT B Khenchela,35.4242584,7.1453609,40
312,BEN SAAD ELLAH BRAHIM,RUE EL EMIR ABEDELKADER Tebessa,35.4010797,8.1172958,12
313,ABANE SAAD,269 RUE SI ALI BEN LAMANI MAISON ROMAINE Tebessa,35.402131,8.120509,12
314,MOUISSI ABEDELLAH,RUE DE LA BASILIC ROMAINE Tebessa,35.3879968,8.1065235,12
315,GHRIB RACHID,6 QUARTIER DE LA ROMONTE ILOT 224 Tebessa,35.4010797,8.1172958,12
316,AHMED CHAOUCHE LARBI,1 CITE DERBASSI KHELIL Tebessa,35.417958,8.1167895,12
317,BOUTERAA ABEDERRAHMENE,RUE DE TEBESSA Cheria,35.3879968,8.1065235,12
318,REBII RAFIK,43 CITE 84 LOGTS Bir El Ater,34.749839,8.0577526,12
319,BEN FADHA MOHAMED TAHER,CITE 08 MAI 1945 El Aouinet,35.8680504,7.8861697,12
320,ABED MILOUD,CITE LES OLIVIERS BT M 2 02 Oran,35.6987388,-0.6349319,31
321,BEDJAOUI FATIMA,10 RUE COMMANDANT FERADJ Oran,35.7047221,-0.6372929,31
322,HAZEB BRAHIM MOHAMED FELLAH,3 CITE 1245 LOGTS BT 445 ENTREE 2 CITE IBN ROCHD Oran Usto,35.7043816,-0.6008798,31
323,NAAMENE MUSTAPHA,14 RUE AMAR IBRAHIM Oran,35.67576,-0.654856,31
324,REBAH MOHAMED AISSA,75 RUE LARBI BEN M'HIDI Oran,35.7031615,-0.6368335,31
326,MECHRAFI TAHER,21 RUE KHLIFA BEN SALEM Oran,35.6862979,-0.6682545,31
327,SADEK BAROUDI,34 RUE SMAIL MOHAMED CITE ABED EL MOUMEN Oran,35.6987388,-0.6349319,31
328,LABIOUDH MOHAMED,5 RUE DE LA MARTINE Oran El M'naouer Ctr,35.6839831,-0.6030241,31
329,MASMI MOHAMED,CITE 500 LOGTS BT O BLOC 118 MARCHE 3 Oran Hlm Seddikia,35.7091222,-0.6085749,31
330,ZEBAR KAHLI MERIEM,3 RUE JEAN KRAFT MIRAMAR Oran,35.7037512,-0.6324466,31
331,BEN AMER RACHIDA,2 CITE ZABANA GROUPE 15 BT 3 ENTREE 2 Arzew,35.8577443,-0.3096606,31
332,GEUN MILOUD,16 RUE ECHARK GDYEL Oran,35.6951387,-0.6427937,31
333,MAFTAHI MOHAMED,CITE ABDELKADER OUELD AMER Oran,35.6721197,-0.6334462,31
334,ALTAR ABEDELKADER,44 RUE ZITOUNI AHMED Oued Tlelat,35.5522349,-0.4487997,31
335,BOUDHRAA BOUALEM,20 RUE MOHAMED KHEMISTI MARSA EL KBIR Oran El M'naouer Ctr,35.7286847,-0.7069677,31
336,BEN ABEDELLAH M'HAMED,4 CITE KABOUL AHMED Lardjem,35.7491541,1.5474579,38
337,GHAYAT ABEDELKRIM,2 AVE COMMANDANT DJABER Tlemcen,34.8831751,-1.31197,13
338,HADJ SAID MOUSSA,4 RUE COMMANDANT DJABER Tlemcen,34.8831751,-1.31197,13
340,BEN SNOUSSI BOUZIANE,4 TRANCHE KARA SLIMEN EL KIFFEN Tlemcen,34.8828864,-1.3166815,13
341,ASSMI AHCEN,66 RUE 1ER NOVEMBRE 54 Maghnia,34.8487433,-1.726959,13
342,KIHEL ABED EL AZIZ,52 RUE COLONNEL AMIROUCHE Maghnia,34.8486597,-1.7293536,13
344,HAMDAOUI EL HABRI,CTRE COMMERCIAL CITE DES SABLE Ghazaouet,35.0936543,-1.861861,13
345,MEDJAOUI ABDELKRIM,RUE DES FRERES SEDDIKI Remchi,35.0609828,-1.4304801,13
346,TEFANDJAR SAID,CITE 100 LOGTS Tissemsilt,35.6597215,1.5351457,38
347,BELHAOUA ALI,CITE BOUCHAREB NACER Sougueur,35.1872934,1.4959513,14
348,BOUKLI HACEN ABED EL GHANI,12 RUE SIDI LAHCEN BAB SIDI BOUMEDIENNE Tlemcen,34.8851606,-1.3058288,13
350,AZMANI ABDERREZAK,48 RUE GUNAOUA EL MAGHREB Nedroma,35.0292918,-1.7666936,13
351,SAADAOUI SALEH,RUE DE LA PALESTINE Sebdou,34.6376648,-1.3329676,13
352,BAHLOUL YAHIA,16 RUE M'BAREK BOUCIF Ain Temouchent,35.2914326,-1.1390807,46
353,BOUCHIBA MOHAMED,6 RUE LAURASSI Sfisef,35.2351049,-0.242702,22
354,DELANI ALI,34 CITE EL BASATINE BT B BLOC 03 BP 53 Sfisef,35.2351049,-0.242702,22
355,BERACHED SAAD,91 RUE DE LA REPUBLIQUE Beni Saf,35.2897861,-1.3768856,46
357,BEN KHADA YOUCEF,6 RUE NACEREDDINE Mascara,35.4020988,0.1400257,29
359,ZEMOULI MOHAMED,19 RUE MAHMOUD Mascara,35.385337,0.1265627,29
360,MASLA MOHAMED,RUE DOCTEUR KHALED Mascara,35.3955233,0.1400142,29
364,BEN KRITLI SID AHMED,2 AVENUE MOHAMED KHEMISTI Mostaganem,35.9339679,0.0897595,27
365,BOUZID EL GHALI,3 RUE SATAL EL DJELALI Mostaganem,35.9311454,0.0909414,27
366,OUAZANI MOHAMED,19 RUE KHETTAB ABEDELKADER Mostaganem,35.9311454,0.0909414,27
367,BEN TERIKI FETHI,172 CITE 200 LOGTS BLOC F Sidi Ali,36.0997892,0.4281316,27
368,DJILLALI ABEDELKADER,39 RUE DE LA REPUBLIQUE Relizane,35.7450263,0.5578837,48
369,MESKINI AICHA,3 CITE DIAR EL WARDE BT L Relizane,35.7450263,0.5578837,48
370,AZIZI KHATHIR,RUE BEN KAHLA MENOUER Oued Rhiou,35.9770048,0.9247501,48
371,SOUABI MOHAMED,962 CITE 1000 LOGTS BT S1 BLOC B Ain Temouchent,35.2992698,-1.1392792,46
372,BELKHCHI FATIHA,41 CITE ABOU BEKRE ESSEDIK Ain Temouchent,35.2992698,-1.1392792,46
374,KOUDRLI MENNOUR,RUE CTRE COMMERCIAL Mazouna,36.12647,0.8906102,48
375,BOUTERFASS ABEDELKADER,BOULEVARD LARBI BEN M'HIDI TELAGHT Sidi Bel Abbes,35.1882619,-0.6336665,22
376,ACHOUCHE ALI,02 RUE AHMED ZINDJABIL Bologhine,36.8079399,3.0389024,16
377,DILMI RABAH,93 BD MOHAMED 5  Mohamed V,36.7674944,3.0503867,16
378,YOUB KELTHOUM,30 RUE DES FRERES BOUADSA Batna,35.5634192,6.1889996,5
379,TOUFFALI AHMED,12 BD SAID HAMDINE Hydra,36.7482998,3.0397597,16
380,AGGAL MAKHLOUF,80 AVE MAHMOUD BOUDJATIT Kouba,36.7381971,3.0898023,16
381,BUREAU NOTARIAL,11 RUE DAUPHIN DAR ESSALAM Draria,36.720057,2.9951112,16
382,TAIB MOHAMED RACHID,CITE BOUTRIK M'BAREK Sour El Ghozlane,36.3879398,3.9010477,10
383,ZOULIM DJAMEL,CITE DES PALMIERS BT A 18 Tizi Ouzou,36.713548,4.0473075,15
384,MOUFFOUKI YAMINA,34 RUE MEKKI KHELIFA MARAVAL Oran,35.6759054,-0.651467,31
385,MOALI FOUZIA,ROUTE DES TOURS VILLA 1 IMMEUBLE BEN YAHI Tizi Ouzou,36.7163828,4.0407774,15
386,TRAD KARIMA,RUE DU 11 DECEMBRE 1960 CITE PIMA BT E N 5 Blida,36.4887391,2.8213773,9
387,TIR ABDEREZAK,1 CITE 170 LOGTS BT B10 SAID HAMDINE Bir Mourad Rais,36.7339979,3.033837,16
388,ETUDE NOTARIALE,10 RAMPE COMMANDANT FERADJ Oran El M'naouer Ctr,35.6987388,-0.6349319,31
389,LOUNES ALI,24 RUE EMIR ABDELKADER Tiaret,35.3763256,1.3135742,14
390,BELKAID KAMILA,3 RUE AISSAT IDIR Tlemcen,34.8854938,-1.3051281,13
391,LATTOUF ABDELWAHAB,VILLA 98 COOPERATIVE 18 FEVRIER CITE SALEM EX SAINT HUBERT Oran,35.6987388,-0.6349319,31
392,AZIAD FRIDA EPSE BOUKARI,9 RUE MOHAMED GARIDI Kouba,36.7317197,3.0850228,16
393,KAMEL ABDERRAHMAN,BOULEVARD AHMED ZAIDET Azazga,36.7453947,4.3714004,15
394,ARICHI ABDELLAH,37 BOULEVARD BENZERJEB PLATEAU Oran,35.7062629,-0.6140773,31
395,IDER BELAID,CITE FIGHOU Tazmalt,36.6241834,5.3365405,6
396,SEMAKDJI SALAH,CITE DAKSI BT C 216 Constantine,36.3560687,6.6440456,25
397,DKHINISSA RABAH,RUE ACHAHMA MOUSSA CITE THENIET EL MAKHZEN Ghardaia,32.4759277,3.6846906,47
399,ZIBOUCHE RIDHA,RUE DE LA GENDARMERIE NATIONALE Tipaza,36.5901285,2.4513385,42
400,KHRAIMECHE DJAMEL,CITE 11 DECEMBRE 1960 Boumerdes,36.7551365,3.4562362,35
402,DJEDJIG LAHLOU,35 AVENUE BOUAAMAMA HASSEN BADI El Harrach,36.716488,3.1373997,16
403,ISSAD TASSADIT,25 RUE DU 20 AOUT 1956 IMMEUBLE ZERIOUL Azazga,36.7453947,4.3714004,15
404,OUSLIMANE NOURA,CITE 1406 BT 85 01 Boumerdes,36.7510697,3.4788905,35
405,BOUKHALFA NASSIMA,RUE AYOUMA MOHAMMED 25 Tipaza,36.5906719,2.4433723,42
406,OUALMI LOUIZA,RUE KASRI AHMED IMMEUBLE REZZOUK ILOT CENTRAL 39 Tizi Ouzou,36.7308862,3.9663581,15
407,TERBAH RACHID,CITE 15 LOGTS PREMIER ETAGE 6 Draa El Mizan,36.53572,3.8364355,15
408,SERBOUH KAHINA,CENTRE VILLE Larba Nath Irathen,36.6388682,4.2031576,15
409,ASLA KHEIREDDINE,RUE DES MOUDJAHIDINE VILLA C 01 1ER ETAGE Azazga,36.7453947,4.3714004,15
410,DAHMANI YOUCEF,RUE DE LA LIBERTE TOUR GENI SIDER 1ER ETAGE Bejaia,36.7515258,5.0556837,6
411,BEN FERHAT MOHAMED,COOPERATIVE IMMOBILIERE EL YASMINE 8 LES ORANGERS Rouiba Rp,36.7390353,3.2840306,16
412,KAOUAH MERIEM AZIZA,202 RUE MOHAMED BELOUIZDAD  Sidi M'hamed,36.753547,3.0615416,16
413,ATBI MOHAMED,16 RUE DU 5 JUILLET El Harrach,36.7205788,3.1374809,16
414,ZEKRAOUI BELKACEM,01 ALLES SALAH NEZZAR Batna,35.5460591,6.1710809,5
415,ABDELKADER BEN HAMOUDA,RUE DES MARTYRS FARES EL HOUARI 790 LOGTS 4 Oran,35.6987388,-0.6349319,31
416,NEGGACHE RAMDANE,CITE 2004 LOGTS LOT 46 Baraki,36.6622277,3.1014614,16
417,BAKAIL SOUHILA,11 RUE AISSA BEN FADHA Zeralda,36.7137456,2.8449957,16
418,BEN MERIEM LINDA,62 CITE 100 LOGTS BT 7 Zeralda,36.7137456,2.8449957,16
419,BEN MIMOUN EL HABIB,CITE LES SOURCES BT 2 N 5 Bir Mourad Rais,36.732855,3.05563,16
420,BEN TALHA MOHAMED,CITE MITIDJA BATIMENT 12 /43 Rouiba Rp,36.7395542,3.2803983,16
421,BENTAYA RIMA,CITE 294 LOGTS BATIMENT A4 1 Ain Benian,36.7948752,2.905233,16
422,BOUKHAROUBA SAMEH,CITE GARIDI 1 BATIMENT 8 8 Kouba,36.7445311,3.0938679,16
423,OPM DERARDJA ISSAM,18 RUE DES FRERES LARBI Douera,36.6688355,2.9442592,16
424,TADJINE FATIHA,24 RUE 1er JUILLET Birkhadem,36.7160675,3.0496695,16
425,FETTIS KAMAL,CITE 384 LOGTS BT C 22 SAID HAMDINE Bir Mourad Rais,36.7349175,3.0351991,16
426,GUENDOUZE HINDA,43 RUE DIDOUCHE MOURAD  Sidi M'hamed,36.7670944,3.0533882,16
427,OUZENI HATTEM,CITE 250 LOGTS Cheraga Rp,36.7668544,2.9602011,16
428,REGUIEG KARIMA,04 PLACE EL KODS Hydra,36.7474636,3.0402509,16
429,SAHRAOUI KARIM,137 RUE 1ER NOVEMBRE Zeralda,36.7118869,2.8398444,16
430,SALEM SALAH,CITE EL ANASSER CITE 4 BATIMENT 92 APPARTEMENT 2 Kouba,36.7344353,3.0695755,16
431,SELLAMI SAMIA ALDJIA,192 CITE HBM 2eme GPE BELOUIZDAD  Sidi M'hamed,36.7616535,3.056515,16
432,SELLAMNA AZIZA,2 RUE DES FRERES OUGHLIS El Mouradia,36.7452496,3.0505324,16
433,ZENBOUDJI AHMED MOSSADEK,2 RUE KADDOUR RAHIM Hussein Dey Rp,36.7420781,3.0931291,16
434,ZEROUG HOUCINE,8 RUE NEZALI CHERIF Cheraga Rp,36.7660527,2.9589692,16
435,TORCHI HAMOU,CITE SOUMMAM Ferdjioua,36.3928996,5.93253,43
437,DRIDI EL HADI,CITE SOUMMAM 200 LOGTS BT 2 C Ferdjioua,36.4051142,5.94196,43
439,MKADEM AFFAF,CITE AHMED BOUSEKINE N 21 Ferdjioua,36.4051142,5.94196,43
440,LAOUABDIA SALAMI ALI,BOULEVARD CHIKH EL ARBI TEBESSI N 05 Annaba,36.8996699,7.7572435,23
441,NOURINE MESSAOUD,BP 119 HAMA BOUZIANE Constantine,36.4220962,6.5988893,25
442,MALKI RABAH,10 RUE BOUZEBIDE AHMED Annaba,36.9142081,7.7426673,23
443,HAZERLI AMAR,6 RUE EMIR ABDELKADER Annaba,36.8964114,7.758031,23
444,BOUDARESA ELAREBI,CITE EL DAKSI ABDELSALEM BATIMENT 22 ENTREE1 N 3 Constantine,36.3570052,6.6390282,25
445,AMIRAT AMAR,2 RUE IBN KHALDOUNE PASSAGE BONISSIER Annaba,36.8987031,7.7578972,23
446,AHCENE CHAOUCHE MOUNIR,14 RUE EL ARBI TEBESSI Annaba,36.8996699,7.7572435,23
447,BENMAAOUCHE RACHID,5 BOULEVARD ELQODSE Constantine,36.3570052,6.6390282,25
448,FERIH HOCINE,8 CITE DAKSI ABDELSALEM BT 3 BIS Constantine,36.3560687,6.6440456,25
449,BOULEDOUA MOHAMMED,1 RUE KENITI ESSEBTI Annaba,36.9142081,7.7426673,23
452,ZIANE LINDA CHENARE,3 RUE BEN HAWAZ IBRAHIM 1ER ET. Annaba,36.9142081,7.7426673,23
453,MOURAD NAZIHA,8 RUE VAL MASCORTE Annaba,36.9196943,7.7521132,23
455,SOCIETE NOTARIALE CIVILE BED AIDA NADJAT,CITE GARIDI 1 BATIMENT 18/5 Kouba,36.7279237,3.0670478,16
456,BEN HAMZA FAIZA,BOULEVARD SAIDANI ABDELMADJID JOLIE VUE Constantine,36.3570052,6.6390282,25
457,DAAMACH IBRAHIM,4 RUE DE LA CNRA Annaba,36.8996743,7.761347,23
458,NAAMANE SAID,9 RUE SAYOUD ACHOUR Annaba,36.9082431,7.7592077,23
459,SENOUCI MOHAMED SALLEH,CITE 8 MAI 1945 Annaba,36.9142081,7.7426673,23
461,LAOUR KHALISSA,2 BD ZIBOUCHE MOHAMED Constantine,36.3570052,6.6390282,25
463,ROUBACHE LAAMRI,CITE 502 LOGTS BATIMENT F El Hadjar,36.8074707,7.7389134,23
464,KHADOUCHE ELDARADJI,CITE 1039 LOGTS BATIMENT 77 N 03 El Khroub,36.2595177,6.6951774,25
465,KRAKRIA RAFIK,108 RUE LAARBI BEN M'HIDI El Hadjar,36.8074707,7.7389134,23
466,BOURIO MOURAD,CITE 1013 LOGTS BATIMENTS BATIMENT 54 N 2 El Khroub,36.2567073,6.6952254,25
467,MEGHENI ABDRAOUF,CITE 502 LOGTS BATIMENT 01 El Hadjar,36.8074707,7.7389134,23
468,BEN OUISS MUSTAPHA,36 CITE 40 LOGTS BT C El Khroub,36.2593314,6.7014537,25
469,BERHIHE ABDELGHANI,25 RUE ZEMOURI MOHAMMED Drean,36.6865627,7.7208062,36
470,BOULKRADACHE RAOUF,CITE 864 LOGTS BLOC 62/776 ALI MENDJELI El Khroub,36.2570374,6.5831384,25
472,SAMIRA AICHA,UV 5 PROMOTION ZIANI BT 10 1ER ET. 11 ET 10 El Khroub,36.2593314,6.7014537,25
474,SEDDIK SOUAD,LA RTE NATIONALE CITE SAADA BATIMENT 01 Ben M'hidi,36.7666372,7.9055824,36
476,KEBI ABDELHAMID,167 CITE 500 LOGTS Mila,36.4555626,6.2608287,43
477,TEBANI MOHAMED,01 RUE CHÂTEAU D' EAU Mila,36.4519049,6.2584338,43
479,SID ALI ABDRAHMANE,4 RUE LA GLACIERE Annaba,36.9012733,7.7572164,23
480,BEN ZAHRA SALAHEDDINE,38 RUE MAHMOUD BEN TOUNSI Mila,36.4519049,6.2584338,43
481,BELMENAI YASER,03 RUE 1ER NOVEMBRE 1954 Mila,36.4519049,6.2584338,43
482,YAKHLEF DJAMEL,142 CITE BOUTOUT BT 14 Mila,36.455673,6.2651446,43
483,CHANIBE SAMIA,CITE 18 LOGTS Oued Endja,36.5000205,6.0713274,43
484,MOKRANE SALIHA,44 RUE EL HOURIA Mila,36.4519049,6.2584338,43
485,MAHNAOUI NABIL,84 CITE 150 LOGTS BT C5 Chelghoum Laid,36.1635599,6.1837559,43
486,BOUKOURA FAIZA,22 AVENUE 1ER NOVEMBRE  Haute Casbah,36.787873,3.0629224,16
487,TOUMI RAFIK,LOT DU PHARE 3 CAP CAXINE Ain Benian,36.8128451,2.954008,16
488,TOUATI FADILA,1 RUE RACHID KORICHI Bab El Oued,36.7879584,3.055397,16
489,BECHA SALIM,1 RUE HAMMANI AREZKI Alger  Centre,36.771589,3.057788,16
491,BEDAIDA SAID,CITE GARIDI 1 BATIMENT 18 5 Kouba,36.7279237,3.0670478,16
492,BUKHEROUBA KELTHOUM,26 RUE TRIPOULI Hussein Dey Rp,36.7445311,3.0938679,16
493,DERIAS ZIDOUMA ET OUBAD NADJAT,COOPERATIVA EL NASSER 60 Kouba,36.7260163,3.0826673,16
494,AMRA MADJID,CITE HAYAT BT B11/3 Gue De Constantine,36.704399,3.0924,16
496,BEN SAADA MOUSTAPHA,27 RUE DE LA RESISTANCE Chlef,36.1659828,1.3363526,2
501,BEN AIDA RACHIDA,194 CITE OPGI El Attaf,36.2258291,1.6737113,44
502,YEMOUNI AHMED,RUE BEL SAADI ABDELKADER Khemis Miliana,36.2612536,1.9627311,44
503,KELKOULI NADIA,CITE SIDI MAAMER BT 1/543 Khemis Miliana,36.2609828,2.2343578,44
504,ABBADA NEZHA,4 RUE DU PALESTIN CITE NORD Miliana,36.3080267,2.228407,44
505,ABDELBAKI SOUAD,18 CITE FRERES MENAD Ain Defla,36.2612536,1.9627311,44
506,AMARI SIHEM,RUE MOSQUEE EL IMEM EL HOUSAIN CITE MAAMOURA Laghouat,33.8078341,2.8628294,3
508,BEKHOUCHE AHMED,RUE MOUSTAPHA BEN BOULAID Batna,35.5634192,6.1889996,5
509,MOHAMED EL MOKHTAR AMRIOU,30 RUE SOUIDANI BOUDJEMAA Cheraga Rp,36.7553142,3.0473057,16
510,MANSOURE ABD NACER,35 RUE MOHAMED EL ARBI BAARIR Biskra,34.8567404,5.7254007,7
511,MENACER ABD LAAZIZE,CITE 46 LOGTS 44 Drean,36.6865627,7.7208062,36
513,BEN HEDDER MOHAMED,7 RUE BENALI BEKHALED Sidi Bel Abbes,35.1920112,-0.63192,22
514,BIRECHE YAHIA,10 RUE BAIT EL QUODS Sidi Bel Abbes,35.1897386,-0.635,22
515,MEHNANE DRISS,4 RUE KAISSER TAHER Sidi Bel Abbes,35.2008838,-0.6308376,22
516,MAAMAR MOHAMED,22 RUE JEAN JACK ROUSSAU Sidi Bel Abbes,35.2104646,-0.6297183,22
517,BAHOUT LAMIA,RTE D'ALGER EN FACE LABORATOIRE MEDECAL ZITTOUNI Medea,36.2726578,2.7650096,26
518,NOURINE MUSTAPHA,CITE BOUZAGZA BT 3 ESCALLIER B 9 Reghaia,36.7616535,3.056515,16
519,CHEKELALA FATIHA,CITE 300 LOG BAT 33 Bab Ezzouar,36.7208407,3.1851232,16
520,MESSAOUDI MOHAMED,CITE ALILI AHMED Boufarik,36.5832413,2.9121256,9
521,KIHAL SMAIL,LOT H 39 El Achour,36.7323719,3.0033602,16
522,BENFATTOUM HOUCINE,16 LOT KAOUCHE B Cheraga Cgn,36.7594538,2.9628136,16
523,ZAANABI NADIA,CITE 618 LOGTS BT 16 APPT. 4 ET 5 Mohammadia,36.7291999,3.1504149,16
525,MOSSAB BRAHIM,SAID HAMDINE BT 2 BLOC 2 Bir Mourad Rais,36.7353482,3.0383576,16
528,BOUHANGUEL MAHFOUD,9 RUE FERHAT ABDELKADER Staoueli,36.7533929,2.8874925,16
529,BELKADI SMAIL,56 RUE FELLA MOHAMED ARAB El Mouradia,36.7423081,3.0537512,16
530,ZGHIDI SOUAD,2 RUE ZAGHOUANI ABDELKADER Ouled Yaich,36.4971139,2.8609977,9
531,RAHOU ASMA,TRANCHE SLIMANI Chiffa,36.4624901,2.7410554,9
532,HADJI ASSIA,CITE 1240 LOGTS  Ouled Yaich,36.4941553,2.862698,9
533,CHIKER MOUSTAPHA,CITE 250 LOGTS El Affroun,36.4701592,2.625741,9
534,AMEUR ZAKARIA,20 RUE DOUISSI ABDELKADER El Affroun,36.4701592,2.625741,9
535,BENLALIA FOUAD,CITE DOUZI 399 Bab Ezzouar,36.7366339,3.1831067,16
536,CHERAIR MOHAMED,CITE SAID HAMDINE VILLA 187 Bir Mourad Rais,36.7353482,3.0383576,16
537,KRIM LAILA,RUE EL FATAH JUILLET BT 70 1 ER ETAGE Birkhadem,36.7160675,3.0496695,16
538,MAAMAR HAROUN,32 RUE LAASSEL ABDELHAMID Hadjout,36.5104252,2.4104798,42
539,AMAD MOHAMED,17 CHEMIN DE SIDI YAHIA Hydra,36.7387861,3.04359,16
540,BOULAHIA BRAHIM,CITE 56 LOG. BT. A1 RUE AHMED BOUGARA 2 Ain Benian,36.8041974,2.9223981,16
541,DHARBANI LAKHDAR,CITE MAHDIDE SALAH LES VERGES Birkhadem,36.7160675,3.0496695,16
542,BELOUNIS NACER EDDINE,5 RTE BOIS DES CARS Dely Ibrahim,36.7554848,2.9797084,16
543,BENNIA KHADIDJA,45 LOT MERKIDAL LES SOURCES Birkhadem,36.7333245,3.0523604,16
544,BOUGUERRA KARIMA,3 LOT. TARDETTI Bir Mourad Rais,36.7323545,3.0497609,16
545,MERINI HANANE,1 COOP. LES VERGERS LOT 2 Birkhadem,36.7280542,3.0492559,16
546,BOULKRIAT BOUDJEMA,444 SAID HAMDINE BT 13A/1 Bir Mourad Rais,36.7353482,3.0383576,16
548,LABOUZI AMAR,RUE FRERES OULIDREN Ain Defla,36.2612536,1.9627311,44
549,SLIMANI MOHAMED,RUE 1er NOVEMBRE Khemis Miliana,36.2609828,2.2343578,44
550,ABDELBAKI SOUAD,5 RUE FRERES MENAD PROJET 18 LOGTS BT B Ain Defla,36.2612536,1.9627311,44
551,ABDELAOUI ABDELKADER,7 CITE DIAR EL MAHSOL BT A El Madania,36.7467896,3.0649653,16
552,ZIAD FARIDA EPSE BOUKARI,9 RUE MOHAMED GARIDI Kouba,36.7389854,3.0876324,16
553,ZOULIM DJAMEL,18 CITE DES PALMIERS BT A Tizi Ouzou,36.713548,4.0473075,15
554,KAMEL ABDERRAHMANE,BD COLONEL AMIROUCHE Azazga,36.7453947,4.3714004,15
555,LABED CHERIF,CITE 20 AOUT 1955    Chelghoum Laid,36.1591597,6.1727342,43
556,BENATTIA ABDELKADER,355 CITE TAHAR BOUCHET RTE D'EL KADOUS Tixeraine,36.7198807,3.036673,16
557,BEN AMIROUCHE HAYAT,RES. EL BATOUL 1ER ET. Birtouta,36.6436334,2.9946473,16
558,ZENATI FAYÇAL,10 RUE ALLAOUA ABDELKADER (LES COMMUNAUX) Kouba,36.729421,3.0842811,16
559,SAHI SAMIA,1 CITE BACHDHARAH BT 5 ESC 1 Bachedjerah,36.7244831,3.1167415,16
560,KHODJA NIHAD SABRINA,CITE LES MARRONS AIN ALLAH BATIMENT 401 A Dely Ibrahim,36.7495801,2.9897445,16
562,SOCIETE CIVILE DE NOTARIAT,2 RUE IGUEDGDAL MOHAMED Ain Benian,36.800402,2.9181427,16
563,MOHAMED LAMINE,CITE 20 LOGTS Cheraga Rp,36.7668544,2.9602011,16
564,LEBRARA ABDERRAHMANE,RUE  1ER NOVEMBRE 1954 Barika,35.3877205,5.3704047,5
565,CHEMROUK NADIA,QUAI DE LA GARE Sidi Aich,36.7493649,5.0592183,6
566,DEBABI SAID,CITE BENYOUNES EL HADJ BP 403 M'sila,35.7186646,4.5233423,28
567,BOURAOUI MADJID,RUE TOUATI GHANEM Boudouaou,36.7204759,3.396615,35
569,KACI NOUREDDINE,CITE KHEMISTI RUE BEN OUDA MOHAMED Mecheria,33.5428376,-0.2751123,45
570,RAHMANI LAARADJ,RUE SOUMMAM Ain Sefra,32.7591169,-0.5782621,45
572,LAABABI HAFIDHA,CITE EL EMIR ABDELKADER 129 BT 1 CTRE VILLE Bechar,31.6238098,-2.2162443,8
573,CHERAD MAHMOUD,RUE AISSAT IDIR GUASABI Tindouf,27.6719159,-8.1398003,37
574,CHEBAH CHERIF,CITE 70 LOGTS 5 Beni Abbes,30.1312217,-2.1662258,8
575,AMRI BACHIR,531 CITE EL BADR Bechar,31.6238098,-2.2162443,8
576,KEDDOUR BELKACEM,28 RUE DE LA LIBERTE  Khelifa Boukhalfa,36.7790904,3.0601645,16
577,LAHLOU DJIDJIK,35 AVENUE BOUAMAMA El Harrach,36.720437,3.1441783,16
578,MAREF FAOUZI,RUE MOHAMED FELAH 12 Kouba,36.7315399,3.0880783,16
579,MESKINE ALI,COOPERATIVE IMMOBILIERE FRANTZ FANON Reghaia,36.7393245,3.3416465,16
580,BOUCHACHI YOUCEF,01 RUE MORITANIQUE Bab El Oued,36.7943835,3.0523634,16
581,BERRAKCHI YOUCEF,09 AVENUE FAYCAL MOUBAREK  Sidi M'hamed,36.753547,3.0615416,16
582,DJEDDOU ABDELMADJID,11 RUE MOHAMMED BELOUIZDAD  Sidi M'hamed,36.753547,3.0615416,16
583,KHERAT YACINE,58 RUE DE TRIPOLI Hussein Dey Rp,36.7445311,3.0938679,16
584,AMRA MADJID,CITE EL HAYET BT 11B/3 Gue De Constantine,36.704399,3.0924,16
585,OUSSALEM ARAB,8 AVENUE TAKARLI ABDERREZAK Blida,36.468349,2.832168,9
586,IKHLEF MAHFOUD,CITE 30 LOGTS BT 1 BEN BOULAID Blida,36.4746249,2.8309837,9
587,KHALED KOUIDER,RUE DIDOUCHE MOURAD 11 Blida,36.4733907,2.8277988,9
588,NEDJAR MUSTAPHA,AVENUE TALA AHCEN 33 HOTEL EL EMIR Cheraga Rp,36.7616535,3.056515,16
589,TEKIA ABDELHAMID,CITE DES FONCTIONNAIRES BT C/1 EMIR ABDELKADER Chlef,36.1696316,1.3410486,2
590,SEBIHI SADEK,RUE 11 DECEMBRE 1960 127 Blida,36.4887391,2.8213773,9
591,TEBBAL ABDELLATIF,19 RUE DES FRERES ABDI Medea,36.2637078,2.7587857,26
592,KERMEZLI MOHAMMED,CITE BOUZIANE Medea,36.2637078,2.7587857,26
593,TESSOUH HAMMOU,LOT 55 39 VILLA 11 Berrouaghia,36.1397978,2.9189942,26
594,OUAKED TAYEB,CITE BEN KHEROUBI TAYEB Medea,36.2637078,2.7587857,26
595,DJARIDA HOCINE,RUE DE LA PALESTINE M'sila,35.7186646,4.5233423,28
596,HAMOUTENE FARIDA,CITE MAVAL BT A 02 Reghaia,36.7386643,3.34255,16
597,BERNOU HAMID,9 RUE SAAD M'SILI Ain Bessem,36.3337514,3.687402,10
598,DJEMAA MOUHOUCHE,CITE 56 LGTS RUE ABANE RAMDANE Bouira,36.3712008,3.9013973,10
599,HAMZA ABDELKADER,ROUTE NATIONALE 1 Djelfa,34.6703956,3.2503761,17
601,MOUHAD MOHAMMED,RUE 20 AOUT Djelfa,34.6703956,3.2503761,17
602,BOUSSAAD SAID,RUE EMIR ABDELKADER GUERRARA Ghardaia,32.48625,3.6757622,47
603,HAMZA ABDELKABER,ROUTE D'EL DJELFA Djelfa,34.6703956,3.2503761,17
604,RAACHE SLIMANE,RUE 20 AOUT 1956 BT 131/18 Djelfa,34.6703956,3.2503761,17
605,CHAOU HAMOU,RUE DES FRERES HAFFIF SIDI AHMED Bejaia,36.7493649,5.0592183,6
606,BOUABDELAH ALI,03 RUE ZOUAOUI MOKHTAR  Haute Casbah,36.7846964,3.0597479,16
607,DRID AZEDINE,11 AVENUE BAB AZOUNE Bab El Oued,36.7903197,3.0611642,16
608,GUARECH AMAR,101 RUE TRIPOLI Hussein Dey Rp,36.7414302,3.1022226,16
609,MOKHTARI MOHAMED,39 RUE MUSTAPHA KHALEF Ben Aknoun Rp,36.7619273,3.0169608,16
610,MEHDAOUI MIMI,CITE SAID HAMDINE 444 BT A 06 Bir Mourad Rais,36.7353482,3.0383576,16
611,MIMOUN NOUREDDINE,02 AVENUE MOHAMED IDRIS BEY  Khelifa Boukhalfa,36.7329001,3.0555058,16
612,HASSANI HASSANE,RUE MOHAMED KHEMISTI Bou Saada,35.2106575,4.1754982,28
613,DJERADI YOUCEF,RUE AMIR ABDELKADER CITE EL GHARBIA Laghouat,33.8041979,2.8787076,3
614,SLIMANI MOHAMED,CITE EL MAAMOURA Laghouat,33.8078341,2.8628294,3
615,BAHATA IBRAHIM,CITE 24 FEVRIER GROUPE 5 07 Staoueli,36.7572655,2.8885537,16
616,BOULEKRIAT BOUDJEMAA,CITE 47 LOGTS BT 05 02 Kheraicia,36.6679107,2.9982768,16
617,HAMMOUDI SAAD,RUE DES FRERES DJARBOUA Ain Tagourait,36.6027621,2.6091145,42
618,SAAD FARID,11 RUE DES MARTYRS Cheraga Rp,36.7674361,2.9640119,16
619,CHELIC YAMINA,ROUTE KAHTAL MOHAMED 02 Ain Benian,36.800402,2.9181427,16
620,KEMOUCHE MOHAMED,7 RUE YOUCEF KHOUDJA Cherchell,36.6079573,2.1890427,42
621,MEKHLOUFI MUSTAPHA,AVENUE 40 LOGTS BT S 22 Tipaza,36.5906719,2.4433723,42
622,REKANI NADJEM,BOULEVARD MOKRANI SAID Tamanrasset,22.7902972,5.5193268,11
623,MOULAY SLIMANE,BP 315 In Salah,27.2026311,2.4878487,11
624,BOUDCHICHA AHMED,1 RUE MADAOUI BOUDJEMAA BAB EL KANTARA Constantine,36.3690234,6.6180745,25
625,BOUSSEKINE BOUDJEMAA,3 CITE DES 1013 LOGTS BT 61 El Khroub,36.2593314,6.7014537,25
626,HADOURI AHMED,17 CITE 1039 BT 5 El Khroub,36.2595177,6.6951774,25
627,HAMIDI AISSA,CITE BOUTARMAS 126 LOGTS BT 4 1 Bouira,36.3691846,3.9006194,10
628,ABDESSAMED SALIM,13 RUE LAMARA  ABEDELKADER Annaba,36.9006199,7.759374,23
629,KHARBOUDJ MOHAMED,27 RUE KHEMISTI PLACE DU THEATRE Annaba,36.8977204,7.758904,23
630,DEROUICHE SIHEM,1 RUE SAIFI AISSA SAINT JEAN Constantine,36.3570052,6.6390282,25
631,FILALI MALIKA,5 CITE 1000 LOGTS BT 89 El Khroub,36.2593314,6.7014537,25
632,IDRISSI AHMED,42 LOGTS NOUVELLE ZONE URBAINE Illizi,26.4775863,8.4776326,33
634,FERIOUA DJAMEL,43 CITE ASSOUAR BT B BAKHOUCHE CHERIF Setif,36.1897593,5.4107984,19
635,BOUMAHREZ RABEH,ANGLE RUE ABDELHAMID IBN BADIS PLACE BOURAOUI AMAR Jijel,36.8205881,5.7517505,18
636,BIYOUT MOHAMED,1 CITE ZEHANI SMAIL BT 2P 4 Jijel,36.7524885,6.2742753,18
637,MOHAMED LAATIOUI,CITE BOUCHERKA BT B 4 Taher,36.7843567,5.9009836,18
638,KATI AHMED,CITE 300 LOGTS NACERIA BT 31 Bejaia,36.7406681,5.0461954,6
639,KHOUATHRIA MAHMOUD,147 RUE 1ER NOVEMBRE 54 El Eulma,36.1529129,5.6797332,19
640,LAFET AMAR,23 CITE 80 LOGTS BT B Ain El Kebira,36.3695684,5.5075105,19
641,IBERAKENE IDIR,CITE AGHZEZ AMOKRANE RN N 26 OUZELEKENE Bejaia,36.7493649,5.0592183,6
642,LATOUF ZIAD,10 PLACE AUCHE Oran El M'naouer Ctr,35.6786655,-0.6536763,31
643,HERNANE ABEDERRAHMENE,9 RUE CHINDER Oran El M'naouer Ctr,35.7002039,-0.6493789,31
644,LAACHOUB MOHAMED,2 RUE DES MARTYRS Arzew,35.8020205,-0.3706755,31
645,OUACHENE NOUREDDINE,26 RUE MOHAMED KHEMISTI GDYEL Oran,35.6987388,-0.6349319,31
647,LAZRAG YAMINA,3 600 LOGTS BT C11 CADAT Tiaret,35.3593621,1.3174019,14
648,BALOUT TOUHAMI,116 CITE KASMI ABDELKADER RTE BELABES Ouled Mimoun,34.9044116,-1.0342358,13
649,OUAZINE MOUSSA,RUE SI M'HAMED BOUGERA Ksar Chellala,35.2181066,2.3153581,14
650,KENICHE MOHAMED,ROUTE DE SAIDA RUE ABED MOKHTAR Ghriss,35.3928494,0.1423193,29
651,BOUAIBIB ADA,24 RUE BRAIS ABEDERRAHMENE Mostaganem,35.9311454,0.0909414,27
652,KHATHIR ABEDELLAH,RUE BEN KOUDIA MAAMAR Oued Rhiou,35.9770048,0.9247501,48
653,ALLAL BAHAZ,AVE EMIR ABDELKADER BP 321 Ghardaia,32.48625,3.6757622,47
654,MANSOURI ALI,24 RUE OMAR BEN EL KHATAB Bab El Oued,36.7920574,3.05338,16
655,OPN OUIDIR,CITE MITIDJA Rouiba Rp,36.7358928,3.2779879,16
656,HAMADOUCHE ABDELKADER,4 RUE SI ALLAL Chlef,36.1667158,1.3371104,2
657,MELHAG SAAD,246 CITE DOUZI 4 R.N 5 Bab Ezzouar,36.7366561,3.1835558,16
658,KHELFI LYNDA,CITE 5 JUILLET B 39  Beni Merad,36.5207695,2.8602746,9
659,REZZAG LEBZA MOHAMED,CITE RABIA TAHAR BT 32 Bab Ezzouar,36.7227951,3.1798487,16
660,DAHMANE SBAIHIA M'HAMED,14 RUE IBN ROCHD Chlef,36.1579664,1.3372823,2
661,MERADJI MAHMOUD,CITE KAOULA MOKHTAR Jijel,36.8100086,5.759828,18
662,BENCHEIKH EL HADJ,CITE MESSALTI ABBES Setif,36.1790422,5.422392,19
663,YAKHLEF MESSAOUD,31 RUE EMIR ABDELKADER Khenchela,35.4355788,7.1482096,40
664,SOCIETE CIVILE PROFESSIONNELLE MAHI EL AMINE & LAHCEN NACER ZIN-EDDINE,35 RUE DU 20 AOUT 55 Oran El M'naouer Ctr,35.7045419,-0.6408513,31
665,HENDAOUI MADANI,CITE 44 LOGTS 19 LABIADH SIDI CHEIKH El Bayadh,32.8970651,0.5457605,32
666,DJABRI EL BACHIR,CITE 62 LOGTS 55 CTRE VILLE Bechar,31.6238098,-2.2162443,8
667,EL HADJ MEHDI FODHIL,CITE BENYOUNES EL HADJ M'sila,35.7186646,4.5233423,28
668,DALI DJAMILA,96 RUE KHODJA KHALED Tizi Ouzou,36.7061801,4.0386069,15
669,IMAD HOCINE,RUE MAGHNEM MOHAMED AKLI 104 LOGTS Tizi Ouzou,36.713548,4.0473075,15
670,GHELLAB RACHID,RUE ABANE RAMDANE CITE 60 LOGTS APPT 5 Tizi Ouzou,36.7057476,4.0546069,15
671,NIAR IBRAHIM MOHAMMED,CITE 65 LOGTS RUE ABANE RAMDANE Lakhdaria,36.5660649,3.5960213,10
672,EL HADJ MOHAMMED BELAHMED,RUE CHEIKH BELAHMED Ghardaia,32.4889043,3.6705385,47
673,SIROUKANE OMAR BEN MOUSSA,RUE CHEIKH ABDELAZIZ ETHAMNI BP 138 Beni Isguen,32.4627718,3.6792719,47
674,GUENDOUZ EL ARBI,CITE ADMINISTRATIVE RUE IBRAHIM KHOUDJA M'sila,35.7186646,4.5233423,28
675,EL TAHER MAHFOUD,RUE AKKARI BELKACEM Aflou,34.1139518,2.0973854,3
676,KADRI MOHAMED,ROUTE BOUHADJAR El Tarf,36.5075732,8.1058446,36
677,SAAD ELLAH MESSAOUD,6 AVENUE ALI BOUSEKINE CITE 60 LOGTS EL KOL Skikda,36.8662658,6.9062556,21
678,TALBI MUSTAPHA,PLACE DE L'INDEPENDANCE Souk Ahras,36.2801062,7.9384033,41
679,EL KOLI TOUNSSI,1 RUE DU 1ER NOVEMBRE 54 Ain El Kebira,36.3695684,5.5075105,19
680,TAGIA RABEH,CITE 50 LOGTS BP 82 Ras El Oued,35.9402582,5.0283213,34
681,HAZIL EL AYACHI,1 RUE DU 1ER NOVEMBRE 54 Khenchela,35.4269404,7.1460155,40
682,RAHMANI FATIHA,CITE OUM SALMA El Oued,33.367811,6.8516511,39
683,M'KARAB ABED EL HAMID,CITE DES ENSEIGNANTS BT 5 L'MAGHAIR El Oued,33.367811,6.8516511,39
684,OTHMANI ABED EL MADJID,2 RUE SERGENT HADHRI MOHAMED Oran El M'naouer Ctr,35.6987388,-0.6349319,31
685,CHAIB DHRAA MOHAMED,11 RUE ZIDANE MILOUD Oran,35.6925458,-0.6482091,31
687,BEN SAADA MUSTAPHA,CITE ADMINISTRATIVE Mazouna,36.12647,0.8906102,48
688,MELLAHI BEN YOUCEF,RUE KHALIFA EL HADJ Ammi Moussa,35.8721265,1.1079316,48
689,KADEM ABDEREZAK,CITE BEN BOULAID 1150 Oum El Bouaghi,35.8688789,7.1108266,4
690,OFFICE PUBLIC NOTARIAL,6 RUE SORIA BENDIMERED Sidi Bel Abbes,35.1917253,-0.6268135,22
691,BELMAMOUNE ABDELAZIZ,8 RUE EL MEDINA Sidi Bel Abbes,35.1896977,-0.6347126,22
692,SELLAM LAMIA OFFICE D'ETUDE NOTARIAL,19 COMMANDANT FERRADJ Sidi Bel Abbes,35.1916211,-0.6324026,22
693,BOULKRAH MOHAMED SALAH,46 BOULEVARD EMIR ABDELKADER Annaba Rp,36.8999293,7.7580523,23
694,EL HADJ SENOUSSI,03 RUE ATIA OUKHELIL El Harrach,36.7279477,3.1388886,16
695,KHANOUS MALIKA,RUE MOHAMED AOUDIA BT 2 2EME ETAGE Tizi Ouzou,36.7133875,4.049744,15
696,HOUAMRIA MOHAMED LAKHDAR,CITE 550 LOGTS Bouchegouf,36.4716931,7.7258575,24
697,MOHAND CHERIF HASSINA,40 LOGTS BT B 05 RUE DES FRERES DOUAOUDIA Bejaia,36.7515258,5.0556837,6
698,BEN KADOUR LAKHAL,23 CITE 80 LOGTS BT B5 Sidi Aich,36.6097178,4.6901722,6
699,BELBIOUDH BEN AISSA,11 RUE KHALFA BEN ABDESSLAM Oran,35.6987388,-0.6349319,31
700,MAAOUI ABED EL HAMID,2 CITE LES ALLEES 20 AOUT 1955 BT 5 Skikda,36.8713246,6.9124453,21
701,BEN HIZIA ALI,8 CITE 1ER NOVEMBRE 54 Bordj Bou Arreridj,36.0739925,4.7630271,34
702,HAMILA MADJIDA,COOPERATIVE WIFAK MUSTAPHA AISSAT Reghaia,36.7222088,3.3388675,16
703,KADI AHMED,6 RUE DE LA MECQUE Sidi Bel Abbes,35.1904819,-0.6353187,22
704,SEMARA ILYES,RUE 1ER NOVEMBRE 1954 Ras El Oued,35.9402582,5.0283213,34
705,NOMAIRI & SAAD POUR LES SERVICES AGRICOLES SNC,28 RUE KOUASMI DJILLALI Ain Defla,36.2509429,1.9393815,44
75,BOURABA MOHAMED,PL 1ER MAI GROUPE 10 BT B  1er Mai,36.0481608,-95.8868756,16
99,HETTAB CHERIF,CITE DJILALI ELYABES BT 3/34 BEN OMAR Kouba,36.7254927,3.0912254,16
172,ABIDELAH MESSAOUD,2EME GROUPE BT I  1er Mai,36.0481608,-95.8868756,16
189,DRAFLI HOURIA,RUE MOHAMED BOURAS Boufarik,36.6631541,3.1069769,9
208,DJAAFAR SAAD,2 RUE  ABED EL KRIM BOUBERTAKH Constantine,28.033886,1.659626,25
288,AMMOUR ZOHEIR,RUE DE L'ALN Mansoura,34.8742141,-1.3260841,34
306,ABED EL BAKI BEN OMAR,141 CITE ESSADA Tolga,34.7291802,5.3802134,7
325,BOUAZA ABID AHMED,60 RUE CHARIT ALI CHERIF Oran El M'naouer Ctr,42.7337073,-84.5351043,31
356,BEN HAOUA ABED EL DJELIL,8 RUE MHOUR IDRISS Mascara,35.0834324,-89.8073035,29
358,WALID MOHAMED,6 RUE MOHOR DRISS Mascara,34.4341513,-119.9202039,29
361,AMOURI ABEDELKADER,9 RUE BAHLOUL BELDJELALI Mascara,35.4020988,0.1400257,29
362,NAKROUF MOHAMED,CITE 23 LOGTS BT C/17 VILLE NOUVELLE Sig,34.0230185,-4.9982704,29
363,BELMELIANI ABEDELKADER,23 RUE ZIGHOUD YOUCEF Sig,35.5330201,-0.1986068,29
436,BEN KABOU MOHAMED FERIH,02 RUE KLAYLYA MOULAY BP 1009 Mohammadia,35.5919096,0.06542,16
438,MOUADYH ABDELMONAAM,RUE BOUKHELIF BEN OUDA Mohammadia,35.5919096,0.06542,29
450,FILALI ABDERRAZAK,2 CITE DES MAGISTRATS Boussouf (cite),44.8366432,-0.5790262,25
454,BAKHOUCHE MALIKA,CITE AFOUTENI EL AREBI HLM BATIMENT A6 N 201 Sidi Mabrouk,36.35663,6.6330819,25
460,BEN ELMOUFAK ABDERRAOUF,19 BD CHAYDEKH MOHAMED Sidi Mabrouk,36.3623629,6.6390931,25
462,FANTAZI HAMID,CITE EL DAKSI ABDELSALEM BT KQ BLOC 1 LOCAL 5 Constantine,41.8411406,-85.6697188,25
471,BOUKHARI NACIRA,BOULEVARD ARASSI ABD ELMADJID Dren,42.58912,-71.15457,36
473,KOUADRI YOUSEF,148 RUE ALI GHACHI Didouche Mourad,48.8370792,2.3650429,25
478,BOUNAMOUSE ABDELHAK,RUE ALI ZEGHDOUD 20 BIS Mila,42.3836083,-87.9446972,43
524,BOULFRAK HACENE HOURIA,5 RUE ACHOUR MIHOUBI Kouba,36.7293777,3.0749574,16
526,BEN ABDE NACER ABDELLAH,108 SAID HAMDINE BT A 13 / 01  Said Hamdine,36.7339979,3.033837,16
527,BELGHERBI FARIDA,RESIDENCE DES ROSIERS BT A 1 Hydra,36.1583095,-95.8382977,16
568,MEDELFEF REDOUANE,53 RUE ALI BENNOUR Bordj Menaiel,36.7451529,3.7170988,35